start=new Date('2022-08-19T00:00:00.000Z').valueOf();
sats=[{"CLASSIFICATION_TYPE":"U","MEAN_ELEMENT_THEORY":"SGP4","REV_AT_EPOCH":"4371","CENTER_NAME":"EARTH","ARG_OF_PERICENTER":"59.5568","LAUNCH_DATE":"2021-11-13","OBJECT_TYPE":"PAYLOAD","MEAN_ANOMALY":"300.5584","DECAY_DATE":null,"OBJECT_ID":"2021-104D","NORAD_CAT_ID":"49411","RA_OF_ASC_NODE":"291.5091","FILE":"3539494","TLE_LINE2":"2 49411  53.2177 291.5091 0001622  59.5568 300.5584 15.08839712 43716","INCLINATION":"53.2177","BSTAR":"0.00010762000000","SEMIMAJOR_AXIS":"6917.881","GP_ID":"210449901","COUNTRY_CODE":"US","EPOCH":"2022-08-18T11:31:18.260544","SITE":"AFETR","TLE_LINE1":"1 49411U 21104D   22230.48007246  .00001425  00000-0  10762-3 0  9998","PERIAPSIS":"538.624","EPHEMERIS_TYPE":"0","REF_FRAME":"TEME","MEAN_MOTION_DDOT":"0.0000000000000","TIME_SYSTEM":"UTC","ELEMENT_SET_NO":"999","PERIOD":"95.438","MEAN_MOTION_DOT":"0.00001425","OBJECT_NAME":"STARLINK-3162","ECCENTRICITY":"0.00016220","RCS_SIZE":"LARGE","MEAN_MOTION":"15.08839712","APOAPSIS":"540.868"},{"TLE_LINE2":"2 49412  53.2169 301.1646 0001387  62.7454 297.3679 15.08833762 42514","INCLINATION":"53.2169","BSTAR":"0.00004733000000","SEMIMAJOR_AXIS":"6917.899","GP_ID":"210476326","RA_OF_ASC_NODE":"301.1646","FILE":"3539615","OBJECT_ID":"2021-104E","NORAD_CAT_ID":"49412","MEAN_ANOMALY":"297.3679","DECAY_DATE":null,"OBJECT_TYPE":"PAYLOAD","REV_AT_EPOCH":"4251","CENTER_NAME":"EARTH","LAUNCH_DATE":"2021-11-13","ARG_OF_PERICENTER":"62.7454","MEAN_ELEMENT_THEORY":"SGP4","CLASSIFICATION_TYPE":"U","RCS_SIZE":"LARGE","MEAN_MOTION":"15.08833762","APOAPSIS":"540.724","PERIOD":"95.438","MEAN_MOTION_DOT":"0.00000465","OBJECT_NAME":"STARLINK-3144","ECCENTRICITY":"0.00013870","MEAN_MOTION_DDOT":"0.0000000000000","TIME_SYSTEM":"UTC","ELEMENT_SET_NO":"999","REF_FRAME":"TEME","PERIAPSIS":"538.805","EPHEMERIS_TYPE":"0","SITE":"AFETR","TLE_LINE1":"1 49412U 21104E   22230.55643037  .00000465  00000-0  47330-4 0  9996","COUNTRY_CODE":"US","EPOCH":"2022-08-18T13:21:15.583968"},{"EPOCH":"2022-08-18T13:01:23.218176","COUNTRY_CODE":"US","TLE_LINE1":"1 49413U 21104F   22230.54262984  .00003963  00000-0  26685-3 0  9999","SITE":"AFETR","EPHEMERIS_TYPE":"0","PERIAPSIS":"538.360","REF_FRAME":"TEME","MEAN_MOTION_DDOT":"0.0000000000000","ELEMENT_SET_NO":"999","TIME_SYSTEM":"UTC","OBJECT_NAME":"STARLINK-3157","PERIOD":"95.437","MEAN_MOTION_DOT":"0.00003963","ECCENTRICITY":"0.00019540","RCS_SIZE":"LARGE","MEAN_MOTION":"15.08851036","APOAPSIS":"541.063","CLASSIFICATION_TYPE":"U","MEAN_ELEMENT_THEORY":"SGP4","REV_AT_EPOCH":"4264","LAUNCH_DATE":"2021-11-13","ARG_OF_PERICENTER":"50.7105","CENTER_NAME":"EARTH","OBJECT_TYPE":"PAYLOAD","DECAY_DATE":null,"MEAN_ANOMALY":"309.4061","NORAD_CAT_ID":"49413","OBJECT_ID":"2021-104F","RA_OF_ASC_NODE":"291.2261","FILE":"3539615","INCLINATION":"53.2155","TLE_LINE2":"2 49413  53.2155 291.2261 0001954  50.7105 309.4061 15.08851036 42640","GP_ID":"210477078","SEMIMAJOR_AXIS":"6917.847","BSTAR":"0.00026685000000"},{"MEAN_MOTION":"15.08842440","RCS_SIZE":"LARGE","APOAPSIS":"540.971","PERIOD":"95.437","MEAN_MOTION_DOT":"0.00002733","OBJECT_NAME":"STARLINK-3146","ECCENTRICITY":"0.00017820","MEAN_MOTION_DDOT":"0.0000000000000","ELEMENT_SET_NO":"999","TIME_SYSTEM":"UTC","REF_FRAME":"TEME","EPHEMERIS_TYPE":"0","PERIAPSIS":"538.505","TLE_LINE1":"1 49414U 21104G   22230.48283103  .00002733  00000-0  18973-3 0  9994","SITE":"AFETR","EPOCH":"2022-08-18T11:35:16.600992","COUNTRY_CODE":"US","INCLINATION":"53.2162","TLE_LINE2":"2 49414  53.2162 301.4897 0001782  50.2831 309.8318 15.08842440 43580","SEMIMAJOR_AXIS":"6917.873","GP_ID":"210446084","BSTAR":"0.00018973000000","RA_OF_ASC_NODE":"301.4897","FILE":"3539323","NORAD_CAT_ID":"49414","OBJECT_ID":"2021-104G","DECAY_DATE":null,"MEAN_ANOMALY":"309.8318","OBJECT_TYPE":"PAYLOAD","REV_AT_EPOCH":"4358","LAUNCH_DATE":"2021-11-13","ARG_OF_PERICENTER":"50.2831","CENTER_NAME":"EARTH","MEAN_ELEMENT_THEORY":"SGP4","CLASSIFICATION_TYPE":"U"},{"DECAY_DATE":null,"MEAN_ANOMALY":"315.1269","NORAD_CAT_ID":"49415","OBJECT_ID":"2021-104H","RA_OF_ASC_NODE":"290.6488","FILE":"3539615","SEMIMAJOR_AXIS":"6917.876","GP_ID":"210475577","BSTAR":"0.00000840720000","INCLINATION":"53.2166","TLE_LINE2":"2 49415  53.2166 290.6488 0002244  44.9905 315.1269 15.08841337 42652","CLASSIFICATION_TYPE":"U","MEAN_ELEMENT_THEORY":"SGP4","ARG_OF_PERICENTER":"44.9905","LAUNCH_DATE":"2021-11-13","CENTER_NAME":"EARTH","REV_AT_EPOCH":"4265","OBJECT_TYPE":"PAYLOAD","REF_FRAME":"TEME","ELEMENT_SET_NO":"999","TIME_SYSTEM":"UTC","MEAN_MOTION_DDOT":"0.0000000000000","PERIOD":"95.437","OBJECT_NAME":"STARLINK-3159","MEAN_MOTION_DOT":"-0.00000155","ECCENTRICITY":"0.00022440","APOAPSIS":"541.294","RCS_SIZE":"LARGE","MEAN_MOTION":"15.08841337","EPOCH":"2022-08-18T16:06:51.837984","COUNTRY_CODE":"US","TLE_LINE1":"1 49415U 21104H   22230.67143331 -.00000155  00000-0  84072-5 0  9996","SITE":"AFETR","EPHEMERIS_TYPE":"0","PERIAPSIS":"538.189"},{"MEAN_ELEMENT_THEORY":"SGP4","CLASSIFICATION_TYPE":"U","OBJECT_TYPE":"PAYLOAD","REV_AT_EPOCH":"4251","CENTER_NAME":"EARTH","LAUNCH_DATE":"2021-11-13","ARG_OF_PERICENTER":"64.6226","OBJECT_ID":"2021-104J","NORAD_CAT_ID":"49416","MEAN_ANOMALY":"295.4928","DECAY_DATE":null,"TLE_LINE2":"2 49416  53.2163 300.9205 0001562  64.6226 295.4928 15.08846046 42518","INCLINATION":"53.2163","BSTAR":"0.00021715000000","SEMIMAJOR_AXIS":"6917.862","GP_ID":"210475827","RA_OF_ASC_NODE":"300.9205","FILE":"3539615","SITE":"AFETR","TLE_LINE1":"1 49416U 21104J   22230.60794501  .00003170  00000-0  21715-3 0  9993","COUNTRY_CODE":"US","EPOCH":"2022-08-18T14:35:26.448864","PERIAPSIS":"538.646","EPHEMERIS_TYPE":"0","MEAN_MOTION_DDOT":"0.0000000000000","TIME_SYSTEM":"UTC","ELEMENT_SET_NO":"999","REF_FRAME":"TEME","MEAN_MOTION":"15.08846046","RCS_SIZE":"LARGE","APOAPSIS":"540.807","PERIOD":"95.437","OBJECT_NAME":"STARLINK-3133","MEAN_MOTION_DOT":"0.00003170","ECCENTRICITY":"0.00015620"},{"NORAD_CAT_ID":"49417","OBJECT_ID":"2021-104K","DECAY_DATE":null,"MEAN_ANOMALY":"320.8612","INCLINATION":"53.2158","TLE_LINE2":"2 49417  53.2158 291.5610 0002028  39.2526 320.8612 15.08843425 42620","SEMIMAJOR_AXIS":"6917.870","GP_ID":"210443830","BSTAR":"0.00010336000000","RA_OF_ASC_NODE":"291.5610","FILE":"3539281","MEAN_ELEMENT_THEORY":"SGP4","CLASSIFICATION_TYPE":"U","OBJECT_TYPE":"PAYLOAD","REV_AT_EPOCH":"4262","ARG_OF_PERICENTER":"39.2526","LAUNCH_DATE":"2021-11-13","CENTER_NAME":"EARTH","MEAN_MOTION_DDOT":"0.0000000000000","ELEMENT_SET_NO":"999","TIME_SYSTEM":"UTC","REF_FRAME":"TEME","RCS_SIZE":"LARGE","MEAN_MOTION":"15.08843425","APOAPSIS":"541.138","OBJECT_NAME":"STARLINK-3154","PERIOD":"95.437","MEAN_MOTION_DOT":"0.00001357","ECCENTRICITY":"0.00020280","TLE_LINE1":"1 49417U 21104K   22230.46903215  .00001357  00000-0  10336-3 0  9994","SITE":"AFETR","EPOCH":"2022-08-18T11:15:24.377760","COUNTRY_CODE":"US","EPHEMERIS_TYPE":"0","PERIAPSIS":"538.332"},{"OBJECT_TYPE":"PAYLOAD","ARG_OF_PERICENTER":"44.0467","LAUNCH_DATE":"2021-11-13","CENTER_NAME":"EARTH","REV_AT_EPOCH":"4358","MEAN_ELEMENT_THEORY":"SGP4","CLASSIFICATION_TYPE":"U","GP_ID":"210450523","SEMIMAJOR_AXIS":"6917.880","BSTAR":"0.00005232600000","INCLINATION":"53.2173","TLE_LINE2":"2 49418  53.2173 301.5477 0002079  44.0467 316.0691 15.08840137 43582","RA_OF_ASC_NODE":"301.5477","FILE":"3539499","NORAD_CAT_ID":"49418","OBJECT_ID":"2021-104L","DECAY_DATE":null,"MEAN_ANOMALY":"316.0691","EPHEMERIS_TYPE":"0","PERIAPSIS":"538.307","TLE_LINE1":"1 49418U 21104L   22230.47178381  .00000545  00000-0  52326-4 0  9998","SITE":"AFETR","EPOCH":"2022-08-18T11:19:22.121184","COUNTRY_CODE":"US","APOAPSIS":"541.183","RCS_SIZE":"LARGE","MEAN_MOTION":"15.08840137","PERIOD":"95.438","OBJECT_NAME":"STARLINK-3111","MEAN_MOTION_DOT":"0.00000545","ECCENTRICITY":"0.00020790","ELEMENT_SET_NO":"999","TIME_SYSTEM":"UTC","MEAN_MOTION_DDOT":"0.0000000000000","REF_FRAME":"TEME"},{"PERIAPSIS":"538.583","EPHEMERIS_TYPE":"0","SITE":"AFETR","TLE_LINE1":"1 49419U 21104M   22230.59322099  .00000755  00000-0  65539-4 0  9992","COUNTRY_CODE":"US","EPOCH":"2022-08-18T14:14:14.293536","APOAPSIS":"540.872","RCS_SIZE":"LARGE","MEAN_MOTION":"15.08845899","OBJECT_NAME":"STARLINK-3120","PERIOD":"95.437","MEAN_MOTION_DOT":"0.00000755","ECCENTRICITY":"0.00016540","TIME_SYSTEM":"UTC","ELEMENT_SET_NO":"999","MEAN_MOTION_DDOT":"0.0000000000000","REF_FRAME":"TEME","OBJECT_TYPE":"PAYLOAD","CENTER_NAME":"EARTH","ARG_OF_PERICENTER":"53.4953","LAUNCH_DATE":"2021-11-13","REV_AT_EPOCH":"4250","MEAN_ELEMENT_THEORY":"SGP4","CLASSIFICATION_TYPE":"U","BSTAR":"0.00006553900000","GP_ID":"210476077","SEMIMAJOR_AXIS":"6917.862","TLE_LINE2":"2 49419  53.2171 301.0031 0001654  53.4953 306.6191 15.08845899 42505","INCLINATION":"53.2171","RA_OF_ASC_NODE":"301.0031","FILE":"3539615","OBJECT_ID":"2021-104M","NORAD_CAT_ID":"49419","MEAN_ANOMALY":"306.6191","DECAY_DATE":null},{"CLASSIFICATION_TYPE":"U","MEAN_ELEMENT_THEORY":"SGP4","CENTER_NAME":"EARTH","LAUNCH_DATE":"2021-11-13","ARG_OF_PERICENTER":"60.5621","REV_AT_EPOCH":"4358","OBJECT_TYPE":"PAYLOAD","MEAN_ANOMALY":"299.5529","DECAY_DATE":null,"OBJECT_ID":"2021-104N","NORAD_CAT_ID":"49420","RA_OF_ASC_NODE":"301.5503","FILE":"3539510","BSTAR":"0.00012277000000","GP_ID":"210451134","SEMIMAJOR_AXIS":"6917.857","TLE_LINE2":"2 49420  53.2179 301.5503 0001576  60.5621 299.5529 15.08847787 43580","INCLINATION":"53.2179","COUNTRY_CODE":"US","EPOCH":"2022-08-18T11:14:04.213248","SITE":"AFETR","TLE_LINE1":"1 49420U 21104N   22230.46810432  .00001667  00000-0  12277-3 0  9996","PERIAPSIS":"538.631","EPHEMERIS_TYPE":"0","REF_FRAME":"TEME","TIME_SYSTEM":"UTC","ELEMENT_SET_NO":"999","MEAN_MOTION_DDOT":"0.0000000000000","PERIOD":"95.437","MEAN_MOTION_DOT":"0.00001667","ECCENTRICITY":"0.00015760","OBJECT_NAME":"STARLINK-3110","APOAPSIS":"540.812","MEAN_MOTION":"15.08847787","RCS_SIZE":"LARGE"}];
